{"type": "FeatureCollection", "properties": {"name": "Jalur LRT Jabodebek (dalam Kota Bekasi)", "sumber": "OpenStreetMap way railway=light_rail name='LRT Jabodebek', diambil 2026-09-07; di-clip ke union 56 kelurahan RBI Kota Bekasi", "catatan": "Geometri rel ASLI dari OSM (bukan aproksimasi seperti koridor BisKita). Infrastruktur eksisting, BELUM disurvei lapangan oleh tim. Layer konteks peta — tidak dipakai untuk skoring CAI/TDI/Equity.", "panjang_km_dalam_kota": 25.14}, "features": [{"type": "Feature", "geometry": {"type": "MultiLineString", "coordinates": [[[106.91017450330855, -6.256442890953457], [106.9125945, -6.2574481], [106.9131603, -6.257635], [106.9138367, -6.2578123], [106.9146822, -6.2580025], [106.9150356, -6.2580656], [106.9152734, -6.2581045], [106.9158777, -6.2581541], [106.9163649, -6.2581634], [106.918143, -6.2582259], [106.9197118, -6.2581837], [106.921446, -6.2581195], [106.9224115, -6.2580662], [106.9248486, -6.2579075], [106.9268709, -6.2578004], [106.9279154, -6.2577426], [106.936902, -6.2572912], [106.9384425, -6.2572191], [106.9403546, -6.2571265], [106.9406878, -6.2570857], [106.943021, -6.2567086], [106.9433239, -6.2566854], [106.9436232, -6.256685], [106.9437836, -6.2566855], [106.945749, -6.2568516], [106.9459903, -6.2568679], [106.946306, -6.2568683], [106.9481606, -6.2567931], [106.94972, -6.2567197], [106.9518542, -6.2566172], [106.9526804, -6.2565675], [106.9541648, -6.2563389], [106.9545047, -6.2563088], [106.955394, -6.256262], [106.9556656, -6.2562416], [106.9560483, -6.2561868], [106.9579401, -6.2558034], [106.959197, -6.2555093], [106.9594753, -6.2554678], [106.9598096, -6.2554427], [106.9607908, -6.2553937], [106.9611072, -6.2553621], [106.9613524, -6.2553232], [106.9616326, -6.2552558], [106.9618982, -6.2551743], [106.9625137, -6.2549446], [106.9631801, -6.2546804], [106.965022, -6.2539574], [106.9655749, -6.2536932], [106.9679305, -6.2523267], [106.9700139, -6.2509423], [106.9706959, -6.2505244], [106.9713488, -6.2501593], [106.9718754, -6.2498991], [106.9724612, -6.2496341], [106.9732399, -6.2493232], [106.9741212, -6.249038], [106.9748681, -6.2488436], [106.9755171, -6.2487086], [106.9762465, -6.2486033], [106.9770999, -6.2485183], [106.9775771, -6.2485006], [106.9788544, -6.2485093], [106.9795357, -6.2485333], [106.9798075, -6.2485576], [106.9801191, -6.2485906], [106.9807263, -6.2486874], [106.9812954, -6.2488262], [106.9822267, -6.2491188], [106.9830796, -6.2494272], [106.9854239, -6.250479], [106.9868781, -6.2512607], [106.9904133, -6.2529813], [106.9943996, -6.2544716], [107.0072049, -6.2590472], [107.0083716, -6.2594891], [107.0100929, -6.2600677], [107.01791344866295, -6.262825821655322]], [[107.0179613, -6.2627809], [107.0100926, -6.2600242], [107.0083651, -6.2594395], [107.0072138, -6.2590037], [107.004521, -6.2580451], [106.9975451, -6.2555484], [106.9973385, -6.2554703], [106.9971874, -6.2554164], [106.9943812, -6.2544556], [106.9904367, -6.2529239], [106.9869033, -6.2512281], [106.9854461, -6.2504369], [106.983089, -6.2493978], [106.9822521, -6.2490909], [106.9813014, -6.2487898], [106.9807302, -6.2486505], [106.9801245, -6.2485526], [106.979808, -6.2485129], [106.979529, -6.248494], [106.9788501, -6.2484699], [106.9775784, -6.2484606], [106.9770655, -6.2484767], [106.9762309, -6.2485599], [106.9755144, -6.2486713], [106.9748669, -6.2488061], [106.9741192, -6.2490039], [106.9732292, -6.2492885], [106.9724531, -6.2495957], [106.9718626, -6.2498631], [106.9713313, -6.2501305], [106.9706756, -6.2504904], [106.9699891, -6.2509116], [106.9679151, -6.2522947], [106.9655587, -6.2536539], [106.965017, -6.253922], [106.96317, -6.2546488], [106.9625033, -6.2549118], [106.9618875, -6.2551356], [106.9616213, -6.2552138], [106.9613456, -6.2552806], [106.9611059, -6.2553187], [106.9607766, -6.2553521], [106.9597983, -6.2554012], [106.9594737, -6.255423], [106.9591894, -6.2554709], [106.9579463, -6.2557561], [106.9560129, -6.2561515], [106.9556543, -6.256204], [106.9553766, -6.2562275], [106.9544953, -6.2562688], [106.9541369, -6.2563001], [106.9527027, -6.2565223], [106.9518783, -6.2565806], [106.9492415, -6.2566946], [106.9485767, -6.2567314], [106.9462966, -6.2568304], [106.945987, -6.256826], [106.945693, -6.2568055], [106.9438637, -6.2566475], [106.9436364, -6.2566427], [106.9433266, -6.256644], [106.9430165, -6.2566722], [106.9406792, -6.2570522], [106.9403456, -6.2570834], [106.9384446, -6.257178], [106.936904, -6.2572557], [106.9279159, -6.257704], [106.9268765, -6.2577725], [106.9248522, -6.2578721], [106.9224334, -6.2580235], [106.9208597, -6.2581035], [106.9203186, -6.2581141], [106.918098, -6.2581795], [106.9159614, -6.2581102], [106.9153061, -6.2580551], [106.9147939, -6.2579745], [106.9137728, -6.2577522], [106.9131722, -6.2576027], [106.9125867, -6.2573995], [106.9114759, -6.2569314], [106.9110462, -6.2567503], [106.9106163, -6.2565692], [106.910426, -6.256489], [106.9101819, -6.2563861], [106.9101647238946, -6.256378648071695]], [[107.02002815892155, -6.263511368809751], [107.0197705, -6.2634197], [107.0180315, -6.2628055], [107.0179613, -6.2627809]]]}, "properties": {}}]}