{
  "type": "FeatureCollection",
  "features": [
    {
      "geometry": {
        "coordinates": [
          [
            107.0136374,
            -6.2497937
          ],
          [
            107.0137917,
            -6.249414
          ],
          [
            107.0138133,
            -6.2493377
          ],
          [
            107.0138484,
            -6.2492426
          ],
          [
            107.0142417,
            -6.2493483
          ],
          [
            107.0143487,
            -6.2493585
          ],
          [
            107.0146491,
            -6.2493667
          ],
          [
            107.0147701,
            -6.2493722
          ],
          [
            107.0150502,
            -6.2493779
          ],
          [
            107.0151405,
            -6.2493675
          ],
          [
            107.0152967,
            -6.2493072
          ],
          [
            107.0155324,
            -6.2492454
          ],
          [
            107.0156961,
            -6.2492025
          ],
          [
            107.0158444,
            -6.249156
          ],
          [
            107.0161225,
            -6.2490974
          ],
          [
            107.016687,
            -6.2489463
          ],
          [
            107.0168879,
            -6.2488722
          ],
          [
            107.0170423,
            -6.2487712
          ],
          [
            107.0172022,
            -6.2486719
          ],
          [
            107.0173918,
            -6.2485602
          ],
          [
            107.0178796,
            -6.2482902
          ],
          [
            107.0180332,
            -6.2482051
          ],
          [
            107.018405,
            -6.2480163
          ],
          [
            107.0184652,
            -6.2479929
          ],
          [
            107.0186051,
            -6.2479439
          ],
          [
            107.0187644,
            -6.247903
          ],
          [
            107.0189414,
            -6.2478845
          ],
          [
            107.0190952,
            -6.2478753
          ],
          [
            107.01937,
            -6.2478785
          ],
          [
            107.0196167,
            -6.2478921
          ],
          [
            107.0198807,
            -6.2479273
          ],
          [
            107.0200255,
            -6.247953
          ],
          [
            107.0201515,
            -6.2479832
          ],
          [
            107.0203425,
            -6.2480321
          ],
          [
            107.0205575,
            -6.2480874
          ],
          [
            107.0207417,
            -6.2481449
          ],
          [
            107.0213908,
            -6.2483461
          ],
          [
            107.0218964,
            -6.2485036
          ],
          [
            107.0222631,
            -6.248623
          ],
          [
            107.0234279,
            -6.2491148
          ],
          [
            107.0236199,
            -6.2491947
          ],
          [
            107.0241909,
            -6.2494185
          ],
          [
            107.0242168,
            -6.2494292
          ],
          [
            107.0243858,
            -6.2495004
          ],
          [
            107.0244799,
            -6.2495355
          ],
          [
            107.0242853,
            -6.2497194
          ],
          [
            107.024258,
            -6.2497591
          ],
          [
            107.024228,
            -6.249813
          ],
          [
            107.0241907,
            -6.2498833
          ],
          [
            107.0241204,
            -6.2500965
          ],
          [
            107.02407,
            -6.2501801
          ],
          [
            107.0240536,
            -6.250256
          ],
          [
            107.0239411,
            -6.2506856
          ],
          [
            107.0238754,
            -6.250923
          ],
          [
            107.0238473,
            -6.251011
          ],
          [
            107.0237728,
            -6.251212
          ],
          [
            107.0236866,
            -6.2514275
          ],
          [
            107.0231095,
            -6.252701
          ],
          [
            107.0230666,
            -6.2528088
          ],
          [
            107.0230184,
            -6.2529301
          ],
          [
            107.0229468,
            -6.2531101
          ],
          [
            107.0228629,
            -6.2533214
          ],
          [
            107.0227068,
            -6.2536707
          ],
          [
            107.0225349,
            -6.2540656
          ],
          [
            107.0225062,
            -6.2541454
          ],
          [
            107.022461,
            -6.2542454
          ],
          [
            107.0221998,
            -6.2549238
          ],
          [
            107.0221541,
            -6.2550314
          ],
          [
            107.0221269,
            -6.2550955
          ],
          [
            107.0220865,
            -6.2551904
          ],
          [
            107.0219192,
            -6.2555844
          ],
          [
            107.0218773,
            -6.2556866
          ],
          [
            107.0217732,
            -6.2559277
          ],
          [
            107.0216278,
            -6.2562939
          ],
          [
            107.0215868,
            -6.256379
          ],
          [
            107.0215009,
            -6.2565875
          ],
          [
            107.0214614,
            -6.2566668
          ],
          [
            107.0213661,
            -6.2569008
          ],
          [
            107.0213098,
            -6.2570332
          ],
          [
            107.0211329,
            -6.2573963
          ],
          [
            107.0209843,
            -6.2576914
          ],
          [
            107.0209561,
            -6.2577529
          ],
          [
            107.0208979,
            -6.2578677
          ],
          [
            107.0208465,
            -6.2579682
          ],
          [
            107.0208127,
            -6.2580609
          ],
          [
            107.0207329,
            -6.2581988
          ],
          [
            107.0206857,
            -6.2583118
          ],
          [
            107.0206402,
            -6.2584087
          ],
          [
            107.0201301,
            -6.2591966
          ],
          [
            107.0198952,
            -6.2596109
          ],
          [
            107.019873,
            -6.25965
          ],
          [
            107.0198393,
            -6.2597095
          ],
          [
            107.0192938,
            -6.2606383
          ],
          [
            107.0191676,
            -6.2608235
          ],
          [
            107.0191367,
            -6.2608874
          ],
          [
            107.0191078,
            -6.2610088
          ],
          [
            107.0190783,
            -6.2610809
          ],
          [
            107.0190318,
            -6.2611679
          ],
          [
            107.0189979,
            -6.2612313
          ],
          [
            107.0188724,
            -6.2614307
          ],
          [
            107.0185759,
            -6.2618541
          ],
          [
            107.018546,
            -6.2619055
          ],
          [
            107.0185185,
            -6.2619489
          ],
          [
            107.0184448,
            -6.2620644
          ],
          [
            107.0180315,
            -6.2628055
          ],
          [
            107.017682,
            -6.263319
          ],
          [
            107.017291,
            -6.2638709
          ],
          [
            107.0171906,
            -6.2640021
          ],
          [
            107.0170674,
            -6.263954
          ],
          [
            107.0167981,
            -6.2638495
          ],
          [
            107.016656,
            -6.2638059
          ],
          [
            107.0158643,
            -6.2635156
          ],
          [
            107.0152914,
            -6.2632884
          ],
          [
            107.014725,
            -6.263065
          ],
          [
            107.0145895,
            -6.2630063
          ],
          [
            107.014501,
            -6.2629643
          ],
          [
            107.0144192,
            -6.2629063
          ],
          [
            107.0143434,
            -6.2628376
          ],
          [
            107.0142656,
            -6.262735
          ],
          [
            107.014214,
            -6.2626412
          ],
          [
            107.0141509,
            -6.2625108
          ],
          [
            107.0140262,
            -6.2621904
          ],
          [
            107.0139633,
            -6.2620609
          ],
          [
            107.0138932,
            -6.2619412
          ],
          [
            107.0138563,
            -6.2618831
          ],
          [
            107.0138043,
            -6.2618312
          ],
          [
            107.0136655,
            -6.2617225
          ],
          [
            107.0134979,
            -6.2616052
          ],
          [
            107.0093974,
            -6.2601695
          ],
          [
            106.9986834,
            -6.2563888
          ],
          [
            106.9971532,
            -6.2558662
          ],
          [
            106.995348,
            -6.2552569
          ],
          [
            106.9940257,
            -6.2547783
          ],
          [
            106.9933234,
            -6.2545251
          ],
          [
            106.9928948,
            -6.2543486
          ],
          [
            106.9919443,
            -6.2539571
          ],
          [
            106.9908001,
            -6.253501
          ],
          [
            106.9895254,
            -6.252966
          ],
          [
            106.9890851,
            -6.2527893
          ],
          [
            106.9883797,
            -6.2524427
          ],
          [
            106.9872397,
            -6.2518961
          ],
          [
            106.9863614,
            -6.2514607
          ],
          [
            106.985212,
            -6.2508909
          ],
          [
            106.9845548,
            -6.250563
          ],
          [
            106.9829026,
            -6.2498511
          ],
          [
            106.9824842,
            -6.2496778
          ],
          [
            106.9821113,
            -6.2495485
          ],
          [
            106.9817385,
            -6.2494378
          ],
          [
            106.9814059,
            -6.2493485
          ],
          [
            106.9809258,
            -6.2492352
          ],
          [
            106.9803223,
            -6.2491099
          ],
          [
            106.9798663,
            -6.2490379
          ],
          [
            106.9794063,
            -6.2489832
          ],
          [
            106.978898,
            -6.2489592
          ],
          [
            106.9786285,
            -6.2489472
          ],
          [
            106.9783851,
            -6.2489346
          ],
          [
            106.9781175,
            -6.2489286
          ],
          [
            106.9778895,
            -6.2489246
          ],
          [
            106.9774282,
            -6.2489312
          ],
          [
            106.9769125,
            -6.2489552
          ],
          [
            106.9766658,
            -6.2489759
          ],
          [
            106.9764023,
            -6.2489939
          ],
          [
            106.9761904,
            -6.2490192
          ],
          [
            106.9757438,
            -6.2490766
          ],
          [
            106.9752704,
            -6.2491672
          ],
          [
            106.9749297,
            -6.2492405
          ],
          [
            106.9745904,
            -6.2493192
          ],
          [
            106.9742176,
            -6.2494245
          ],
          [
            106.9737898,
            -6.2495578
          ],
          [
            106.9733579,
            -6.2497085
          ],
          [
            106.9729811,
            -6.2498324
          ],
          [
            106.9727893,
            -6.2499098
          ],
          [
            106.9723012,
            -6.2501124
          ],
          [
            106.9716883,
            -6.250419
          ],
          [
            106.971176,
            -6.2506883
          ],
          [
            106.9707482,
            -6.2509403
          ],
          [
            106.9702439,
            -6.2512536
          ],
          [
            106.9682416,
            -6.252576
          ],
          [
            106.9673337,
            -6.2531519
          ],
          [
            106.9667262,
            -6.2535265
          ],
          [
            106.9656251,
            -6.2541318
          ],
          [
            106.9643101,
            -6.2547171
          ],
          [
            106.9635406,
            -6.2550596
          ],
          [
            106.9628811,
            -6.2553177
          ],
          [
            106.9609088,
            -6.2558645
          ],
          [
            106.9600807,
            -6.2560678
          ],
          [
            106.9587061,
            -6.25632
          ],
          [
            106.9582501,
            -6.2564007
          ],
          [
            106.9580152,
            -6.2564474
          ],
          [
            106.9578316,
            -6.2564935
          ],
          [
            106.9575833,
            -6.256527
          ],
          [
            106.9574694,
            -6.2565353
          ],
          [
            106.956822,
            -6.2565822
          ],
          [
            106.9528696,
            -6.2568289
          ],
          [
            106.9511042,
            -6.2569222
          ],
          [
            106.9508956,
            -6.2569332
          ],
          [
            106.9470157,
            -6.2571383
          ],
          [
            106.9462703,
            -6.2572034
          ],
          [
            106.9458036,
            -6.2572754
          ],
          [
            106.9449573,
            -6.2574898
          ],
          [
            106.9448219,
            -6.2575552
          ],
          [
            106.944661,
            -6.2576126
          ],
          [
            106.9443122,
            -6.2576874
          ],
          [
            106.9440681,
            -6.2577463
          ],
          [
            106.9438427,
            -6.257785
          ],
          [
            106.9436622,
            -6.2577955
          ],
          [
            106.9434767,
            -6.2577639
          ],
          [
            106.942979,
            -6.2576983
          ],
          [
            106.9427698,
            -6.2576912
          ],
          [
            106.9426437,
            -6.2577374
          ],
          [
            106.9425729,
            -6.2577712
          ],
          [
            106.9424812,
            -6.2577944
          ],
          [
            106.9421263,
            -6.2577779
          ],
          [
            106.9419513,
            -6.2577447
          ],
          [
            106.9417668,
            -6.2577097
          ],
          [
            106.9416529,
            -6.257638
          ],
          [
            106.9414812,
            -6.2574951
          ],
          [
            106.9413412,
            -6.2573973
          ],
          [
            106.9406953,
            -6.2574243
          ],
          [
            106.9400092,
            -6.2574594
          ],
          [
            106.9371049,
            -6.2576081
          ],
          [
            106.9366076,
            -6.2576297
          ],
          [
            106.9358749,
            -6.2576656
          ],
          [
            106.9340291,
            -6.2577561
          ],
          [
            106.9314388,
            -6.2578831
          ],
          [
            106.9279816,
            -6.2580593
          ],
          [
            106.9271701,
            -6.2581007
          ],
          [
            106.9262947,
            -6.258153
          ],
          [
            106.9228908,
            -6.2583188
          ],
          [
            106.9224137,
            -6.2583431
          ],
          [
            106.9223613,
            -6.2583446
          ],
          [
            106.9219238,
            -6.2583683
          ],
          [
            106.9187606,
            -6.258515
          ],
          [
            106.9172846,
            -6.2585236
          ],
          [
            106.916207,
            -6.2584842
          ],
          [
            106.9156042,
            -6.258447
          ],
          [
            106.9152613,
            -6.2584018
          ],
          [
            106.9151518,
            -6.2583842
          ],
          [
            106.9147724,
            -6.2583334
          ],
          [
            106.9140177,
            -6.2581973
          ],
          [
            106.9135328,
            -6.2580885
          ],
          [
            106.9132852,
            -6.2580177
          ],
          [
            106.9128762,
            -6.2579009
          ],
          [
            106.9124281,
            -6.2577569
          ],
          [
            106.9119046,
            -6.2575561
          ],
          [
            106.9114074,
            -6.2573654
          ],
          [
            106.9109292,
            -6.257182
          ],
          [
            106.910523,
            -6.2570262
          ],
          [
            106.9098083,
            -6.2567516
          ],
          [
            106.907954,
            -6.2560324
          ],
          [
            106.9062219,
            -6.2553751
          ],
          [
            106.9053887,
            -6.255029
          ],
          [
            106.905178,
            -6.2549243
          ],
          [
            106.9048653,
            -6.254771
          ],
          [
            106.9043717,
            -6.2544769
          ],
          [
            106.9038328,
            -6.254128
          ],
          [
            106.9034882,
            -6.2538595
          ],
          [
            106.9030686,
            -6.2535292
          ],
          [
            106.9026864,
            -6.2532119
          ],
          [
            106.90233,
            -6.2528623
          ],
          [
            106.9020534,
            -6.2525678
          ],
          [
            106.9017823,
            -6.2522499
          ],
          [
            106.9015622,
            -6.2519686
          ],
          [
            106.9013356,
            -6.2516615
          ],
          [
            106.9010236,
            -6.2512257
          ],
          [
            106.9007246,
            -6.2507415
          ],
          [
            106.9005103,
            -6.2503719
          ],
          [
            106.9001735,
            -6.2497909
          ],
          [
            106.8995909,
            -6.2488078
          ],
          [
            106.8993106,
            -6.2483473
          ],
          [
            106.8990764,
            -6.2479936
          ],
          [
            106.8988487,
            -6.2476592
          ],
          [
            106.8982594,
            -6.2468886
          ],
          [
            106.8978176,
            -6.2463929
          ],
          [
            106.89732,
            -6.2459037
          ],
          [
            106.896665,
            -6.2453848
          ],
          [
            106.8961001,
            -6.2450121
          ],
          [
            106.8957573,
            -6.2448282
          ],
          [
            106.8953951,
            -6.2446475
          ],
          [
            106.8951196,
            -6.2445226
          ],
          [
            106.8949091,
            -6.2444907
          ],
          [
            106.8946965,
            -6.2444292
          ],
          [
            106.894222,
            -6.2443012
          ],
          [
            106.8935042,
            -6.2441477
          ],
          [
            106.8929164,
            -6.2440571
          ],
          [
            106.892563,
            -6.2440461
          ],
          [
            106.8923276,
            -6.2440531
          ],
          [
            106.8919352,
            -6.2440925
          ],
          [
            106.8915603,
            -6.2441633
          ],
          [
            106.8913595,
            -6.2442122
          ],
          [
            106.8912032,
            -6.2442654
          ],
          [
            106.8908882,
            -6.2443771
          ],
          [
            106.8906774,
            -6.2444716
          ],
          [
            106.8905349,
            -6.2445482
          ],
          [
            106.8903862,
            -6.2446382
          ],
          [
            106.8901168,
            -6.2448259
          ],
          [
            106.8896188,
            -6.2451534
          ],
          [
            106.8896136,
            -6.2451568
          ],
          [
            106.8892098,
            -6.2454152
          ],
          [
            106.8887841,
            -6.2456876
          ],
          [
            106.888519,
            -6.2458572
          ],
          [
            106.8881706,
            -6.2460896
          ],
          [
            106.8875829,
            -6.2464816
          ],
          [
            106.88744,
            -6.246554
          ],
          [
            106.8870918,
            -6.2467305
          ],
          [
            106.8866122,
            -6.2469736
          ],
          [
            106.8860796,
            -6.2472067
          ],
          [
            106.8860237,
            -6.2472285
          ],
          [
            106.8856301,
            -6.2473815
          ],
          [
            106.8853088,
            -6.2474855
          ],
          [
            106.8849363,
            -6.2475805
          ],
          [
            106.8844943,
            -6.2476524
          ],
          [
            106.8841195,
            -6.2476918
          ],
          [
            106.8836728,
            -6.2477259
          ],
          [
            106.8836165,
            -6.2477308
          ],
          [
            106.8831767,
            -6.2477687
          ],
          [
            106.8822403,
            -6.2478091
          ],
          [
            106.8818528,
            -6.247804
          ],
          [
            106.8812501,
            -6.2478302
          ],
          [
            106.8810788,
            -6.2478403
          ],
          [
            106.8810744,
            -6.2478406
          ],
          [
            106.8809439,
            -6.2478568
          ],
          [
            106.8808878,
            -6.2478712
          ],
          [
            106.8807618,
            -6.2479035
          ],
          [
            106.8807152,
            -6.247919
          ],
          [
            106.8805595,
            -6.2479709
          ],
          [
            106.8804019,
            -6.2480518
          ],
          [
            106.8801148,
            -6.2481991
          ],
          [
            106.8800063,
            -6.2482593
          ],
          [
            106.8798848,
            -6.2483119
          ],
          [
            106.8797373,
            -6.248365
          ],
          [
            106.8794846,
            -6.2484507
          ],
          [
            106.8792708,
            -6.2485117
          ],
          [
            106.8790996,
            -6.2485569
          ],
          [
            106.8789307,
            -6.2486005
          ],
          [
            106.8787133,
            -6.2486509
          ],
          [
            106.8785018,
            -6.2486929
          ],
          [
            106.878106,
            -6.2487566
          ],
          [
            106.8779381,
            -6.2487699
          ],
          [
            106.8776745,
            -6.2487908
          ],
          [
            106.8773568,
            -6.2487705
          ],
          [
            106.8771503,
            -6.2487596
          ],
          [
            106.8769499,
            -6.2487273
          ],
          [
            106.8767748,
            -6.2486695
          ],
          [
            106.8765181,
            -6.24855
          ],
          [
            106.8762855,
            -6.2484209
          ],
          [
            106.8758818,
            -6.2481576
          ],
          [
            106.8755054,
            -6.2478507
          ],
          [
            106.8749028,
            -6.2473128
          ],
          [
            106.8745709,
            -6.2470604
          ],
          [
            106.8744113,
            -6.2469609
          ],
          [
            106.8742248,
            -6.2468489
          ],
          [
            106.8739727,
            -6.2467209
          ],
          [
            106.8736884,
            -6.2466216
          ],
          [
            106.8734229,
            -6.2465443
          ],
          [
            106.8729743,
            -6.2464403
          ],
          [
            106.8728489,
            -6.2464124
          ],
          [
            106.8727208,
            -6.2463924
          ],
          [
            106.872624,
            -6.2463767
          ],
          [
            106.872497,
            -6.246353
          ],
          [
            106.8723711,
            -6.246323
          ],
          [
            106.8722169,
            -6.2462693
          ],
          [
            106.8721086,
            -6.2462363
          ],
          [
            106.8719155,
            -6.2461803
          ],
          [
            106.8717578,
            -6.2461361
          ],
          [
            106.8717032,
            -6.246121
          ],
          [
            106.8716305,
            -6.2460983
          ],
          [
            106.8712389,
            -6.245985
          ],
          [
            106.8708368,
            -6.2458679
          ],
          [
            106.8706626,
            -6.245812
          ],
          [
            106.8704697,
            -6.245745
          ],
          [
            106.8704025,
            -6.2457088
          ],
          [
            106.8701216,
            -6.24556
          ],
          [
            106.8699341,
            -6.2455099
          ],
          [
            106.8696255,
            -6.2453967
          ],
          [
            106.8696059,
            -6.2453895
          ],
          [
            106.8687564,
            -6.2450852
          ],
          [
            106.8684758,
            -6.2450009
          ],
          [
            106.8684277,
            -6.2449846
          ],
          [
            106.8684151,
            -6.2449802
          ],
          [
            106.8682777,
            -6.2449296
          ],
          [
            106.8683271,
            -6.2448244
          ],
          [
            106.8683879,
            -6.2446669
          ],
          [
            106.8685107,
            -6.2442916
          ],
          [
            106.8685756,
            -6.2442204
          ],
          [
            106.8685999,
            -6.2442113
          ],
          [
            106.8687127,
            -6.2441956
          ],
          [
            106.8688095,
            -6.2441875
          ],
          [
            106.868906,
            -6.244196
          ],
          [
            106.8689377,
            -6.2442058
          ],
          [
            106.8692772,
            -6.2443241
          ],
          [
            106.869416,
            -6.2443904
          ],
          [
            106.8695211,
            -6.2444488
          ],
          [
            106.8696363,
            -6.244524
          ],
          [
            106.8698085,
            -6.2446887
          ],
          [
            106.8698387,
            -6.2447267
          ],
          [
            106.869862,
            -6.2447662
          ],
          [
            106.8699078,
            -6.2448585
          ],
          [
            106.869963,
            -6.2449225
          ],
          [
            106.8700534,
            -6.2450199
          ],
          [
            106.8701452,
            -6.2451078
          ],
          [
            106.8702408,
            -6.245205
          ],
          [
            106.8703115,
            -6.2452777
          ],
          [
            106.8703544,
            -6.2453238
          ],
          [
            106.8704429,
            -6.2454091
          ],
          [
            106.8705106,
            -6.2454714
          ],
          [
            106.8706185,
            -6.245559
          ],
          [
            106.870715,
            -6.2456138
          ],
          [
            106.8708009,
            -6.2456535
          ],
          [
            106.8708719,
            -6.2456827
          ],
          [
            106.8709816,
            -6.2457217
          ]
        ],
        "type": "LineString"
      },
      "properties": {
        "from": "Terminal Bekasi",
        "name": "Transjakarta B21: Bekasi Timur → Cawang",
        "ref": "B21",
        "route": "bus",
        "to": "Cawang"
      },
      "type": "Feature"
    },
    {
      "geometry": {
        "coordinates": [
          107.0136374,
          -6.2497937
        ],
        "type": "Point"
      },
      "properties": {
        "name": "Terminal Bekasi"
      },
      "type": "Feature"
    },
    {
      "geometry": {
        "coordinates": [
          107.0156961,
          -6.2492025
        ],
        "type": "Point"
      },
      "properties": {
        "name": "Jalan Bakti"
      },
      "type": "Feature"
    },
    {
      "geometry": {
        "coordinates": [
          107.0207417,
          -6.2481449
        ],
        "type": "Point"
      },
      "properties": {
        "name": "Taman Margahayu 1"
      },
      "type": "Feature"
    },
    {
      "geometry": {
        "coordinates": [
          107.0234279,
          -6.2491148
        ],
        "type": "Point"
      },
      "properties": {
        "name": "Superindo Bulak Kapal 1"
      },
      "type": "Feature"
    },
    {
      "geometry": {
        "coordinates": [
          107.0239411,
          -6.2506856
        ],
        "type": "Point"
      },
      "properties": {
        "name": "Bulak Kapal 3"
      },
      "type": "Feature"
    },
    {
      "geometry": {
        "coordinates": [
          107.0230184,
          -6.2529301
        ],
        "type": "Point"
      },
      "properties": {
        "name": "Pom Bensin Mulyadi"
      },
      "type": "Feature"
    },
    {
      "geometry": {
        "coordinates": [
          107.0220865,
          -6.2551904
        ],
        "type": "Point"
      },
      "properties": {
        "name": "Masjid Amar Marruf 1"
      },
      "type": "Feature"
    },
    {
      "geometry": {
        "coordinates": [
          107.0215009,
          -6.2565875
        ],
        "type": "Point"
      },
      "properties": {
        "name": "Jalan Kunang-Kunang 1"
      },
      "type": "Feature"
    },
    {
      "geometry": {
        "coordinates": [
          107.0206857,
          -6.2583118
        ],
        "type": "Point"
      },
      "properties": {
        "name": "BTC 1"
      },
      "type": "Feature"
    },
    {
      "geometry": {
        "coordinates": [
          107.0198952,
          -6.2596109
        ],
        "type": "Point"
      },
      "properties": {
        "name": "GP Mall 1"
      },
      "type": "Feature"
    },
    {
      "geometry": {
        "coordinates": [
          107.018546,
          -6.2619055
        ],
        "type": "Point"
      },
      "properties": {
        "name": "Grand Dhika City"
      },
      "type": "Feature"
    },
    {
      "geometry": {
        "coordinates": [
          107.016656,
          -6.2638059
        ],
        "type": "Point"
      },
      "properties": {
        "name": "Tol Bekasi Timur 1"
      },
      "type": "Feature"
    },
    {
      "geometry": {
        "coordinates": [
          106.9419513,
          -6.2577447
        ],
        "type": "Point"
      },
      "properties": {
        "name": "Jatibening 1"
      },
      "type": "Feature"
    },
    {
      "geometry": {
        "coordinates": [
          106.8779381,
          -6.2487699
        ],
        "type": "Point"
      },
      "properties": {
        "name": "Cawang Blue Bird"
      },
      "type": "Feature"
    },
    {
      "geometry": {
        "coordinates": [
          106.8709816,
          -6.2457217
        ],
        "type": "Point"
      },
      "properties": {
        "name": "BNN 2"
      },
      "type": "Feature"
    }
  ]
}